{"type": "FeatureCollection", "features": [ {"type": "Feature", "properties": {"norad_id": 40315, "name": "COSMOS 2501 (702K)", "group": "gnss", "lat": -34.48758387772187, "lon": 36.578093776491976, "alt_km": 19084.752154125956, "timestamp": "2025-12-18T10:51:26.046850+00:00", "meta": {"OBJECT_NAME": "COSMOS 2501 (702K)", "OBJECT_ID": "2014-075A", "EPOCH": "2025-12-14T09:54:07.365600", "MEAN_MOTION": 2.13101427, "ECCENTRICITY": 0.00201134, "INCLINATION": 63.6139, "RA_OF_ASC_NODE": 196.7672, "ARG_OF_PERICENTER": 204.2903, "MEAN_ANOMALY": 155.6894, "EPHEMERIS_TYPE": 0, "CLASSIFICATION_TYPE": "U", "NORAD_CAT_ID": 40315, "ELEMENT_SET_NO": 999, "REV_AT_EPOCH": 8591, "BSTAR": 0, "MEAN_MOTION_DOT": 9.7e-07, "MEAN_MOTION_DDOT": 0}, "tle": {"line1": "1 40315U 14075A   25348.41258525  .00000097  00000+0  00000+0 0  9998", "line2": "2 40315  63.6139 196.7672 0020113 204.2903 155.6894  2.13101427 85910"}}, "geometry": {"type": "Point", "coordinates": [36.578093776491976, -34.48758387772187]}}, {"type": "Feature", "properties": {"norad_id": 40534, "name": "GPS BIIF-9  (PRN 26)", "group": "gnss", "lat": -53.06028533004, "lon": 127.11881821034768, "alt_km": 20351.133335526312, "timestamp": "2025-12-18T10:51:26.046861+00:00", "meta": {"OBJECT_NAME": "GPS BIIF-9  (PRN 26)", "OBJECT_ID": "2015-013A", "EPOCH": "2025-12-17T13:48:02.835648", "MEAN_MOTION": 2.00562371, "ECCENTRICITY": 0.01072439, "INCLINATION": 53.197, "RA_OF_ASC_NODE": 211.6899, "ARG_OF_PERICENTER": 38.596, "MEAN_ANOMALY": 322.2597, "EPHEMERIS_TYPE": 0, "CLASSIFICATION_TYPE": "U", "NORAD_CAT_ID": 40534, "ELEMENT_SET_NO": 999, "REV_AT_EPOCH": 7818, "BSTAR": 0, "MEAN_MOTION_DOT": 8.5e-07, "MEAN_MOTION_DDOT": 0}, "tle": {"line1": "1 40534U 15013A   25351.57503282  .00000085  00000+0  00000+0 0  9995", "line2": "2 40534  53.1970 211.6899 0107243  38.5960 322.2597  2.00562371 78187"}}, "geometry": {"type": "Point", "coordinates": [127.11881821034768, -53.06028533004]}}, {"type": "Feature", "properties": {"norad_id": 40544, "name": "GSAT0203 (GALILEO 7)", "group": "gnss", "lat": -44.42768497673407, "lon": -53.33786987680291, "alt_km": 23210.426257105122, "timestamp": "2025-12-18T10:51:26.046873+00:00", "meta": {"OBJECT_NAME": "GSAT0203 (GALILEO 7)", "OBJECT_ID": "2015-017A", "EPOCH": "2025-12-17T08:55:11.074944", "MEAN_MOTION": 1.7047611, "ECCENTRICITY": 0.00064774, "INCLINATION": 56.8452, "RA_OF_ASC_NODE": 346.5536, "ARG_OF_PERICENTER": 273.4606, "MEAN_ANOMALY": 86.4809, "EPHEMERIS_TYPE": 0, "CLASSIFICATION_TYPE": "U", "NORAD_CAT_ID": 40544, "ELEMENT_SET_NO": 999, "REV_AT_EPOCH": 6610, "BSTAR": 0, "MEAN_MOTION_DOT": -7.9e-07, "MEAN_MOTION_DDOT": 0}, "tle": {"line1": "1 40544U 15017A   25351.37165596 -.00000079  00000+0  00000+0 0  9994", "line2": "2 40544  56.8452 346.5536 0006477 273.4606  86.4809  1.70476110 66108"}}, "geometry": {"type": "Point", "coordinates": [-53.33786987680291, -44.42768497673407]}}, {"type": "Feature", "properties": {"norad_id": 40545, "name": "GSAT0204 (GALILEO 8)", "group": "gnss", "lat": 27.605577548291738, "lon": 146.55091492428403, "alt_km": 23227.34850262202, "timestamp": "2025-12-18T10:51:26.046888+00:00", "meta": {"OBJECT_NAME": "GSAT0204 (GALILEO 8)", "OBJECT_ID": "2015-017B", "EPOCH": "2025-12-14T16:39:40.338432", "MEAN_MOTION": 1.70475755, "ECCENTRICITY": 0.0006191, "INCLINATION": 56.8531, "RA_OF_ASC_NODE": 346.6443, "ARG_OF_PERICENTER": 264.523, "MEAN_ANOMALY": 95.425, "EPHEMERIS_TYPE": 0, "CLASSIFICATION_TYPE": "U", "NORAD_CAT_ID": 40545, "ELEMENT_SET_NO": 999, "REV_AT_EPOCH": 2910, "BSTAR": 0, "MEAN_MOTION_DOT": -8.5e-07, "MEAN_MOTION_DDOT": 0}, "tle": {"line1": "1 40545U 15017B   25348.69421688 -.00000085  00000+0  00000+0 0  9990", "line2": "2 40545  56.8531 346.6443 0006191 264.5230  95.4250  1.70475755 29105"}}, "geometry": {"type": "Point", "coordinates": [146.55091492428403, 27.605577548291738]}}, {"type": "Feature", "properties": {"norad_id": 40549, "name": "BEIDOU-3S IGSO-1S (C31)", "group": "gnss", "lat": 33.65256426339204, "lon": -27.84342084026617, "alt_km": 35904.62304651612, "timestamp": "2025-12-18T10:51:26.046903+00:00", "meta": {"OBJECT_NAME": "BEIDOU-3S IGSO-1S (C31)", "OBJECT_ID": "2015-019A", "EPOCH": "2025-12-16T22:00:09.125856", "MEAN_MOTION": 1.00292577, "ECCENTRICITY": 0.00363578, "INCLINATION": 49.5427, "RA_OF_ASC_NODE": 297.6612, "ARG_OF_PERICENTER": 193.8033, "MEAN_ANOMALY": 18.6613, "EPHEMERIS_TYPE": 0, "CLASSIFICATION_TYPE": "U", "NORAD_CAT_ID": 40549, "ELEMENT_SET_NO": 999, "REV_AT_EPOCH": 3924, "BSTAR": 0, "MEAN_MOTION_DOT": -1.91e-06, "MEAN_MOTION_DDOT": 0}, "tle": {"line1": "1 40549U 15019A   25350.91677229 -.00000191  00000+0  00000+0 0  9996", "line2": "2 40549  49.5427 297.6612 0036357 193.8033  18.6613  1.00292577 39245"}}, "geometry": {"type": "Point", "coordinates": [-27.84342084026617, 33.65256426339204]}}, {"type": "Feature", "properties": {"norad_id": 40730, "name": "GPS BIIF-10 (PRN 08)", "group": "gnss", "lat": 17.168194885700938, "lon": 81.62532268531373, "alt_km": 20374.923802929392, "timestamp": "2025-12-18T10:51:26.046915+00:00", "meta": {"OBJECT_NAME": "GPS BIIF-10 (PRN 08)", "OBJECT_ID": "2015-033A", "EPOCH": "2025-12-17T17:40:14.806272", "MEAN_MOTION": 2.00565457, "ECCENTRICITY": 0.01112676, "INCLINATION": 54.1263, "RA_OF_ASC_NODE": 274.5673, "ARG_OF_PERICENTER": 26.9306, "MEAN_ANOMALY": 333.6659, "EPHEMERIS_TYPE": 0, "CLASSIFICATION_TYPE": "U", "NORAD_CAT_ID": 40730, "ELEMENT_SET_NO": 999, "REV_AT_EPOCH": 7635, "BSTAR": 0, "MEAN_MOTION_DOT": -4.1e-07, "MEAN_MOTION_DDOT": 0}, "tle": {"line1": "1 40730U 15033A   25351.73628248 -.00000041  00000+0  00000+0 0  9996", "line2": "2 40730  54.1263 274.5673 0111267  26.9306 333.6659  2.00565457 76355"}}, "geometry": {"type": "Point", "coordinates": [81.62532268531373, 17.168194885700938]}}, {"type": "Feature", "properties": {"norad_id": 40748, "name": "BEIDOU-3S M2S (C58)", "group": "gnss", "lat": 41.90353486904995, "lon": -12.895187785218734, "alt_km": 21551.918371394062, "timestamp": "2025-12-18T10:51:26.046927+00:00", "meta": {"OBJECT_NAME": "BEIDOU-3S M2S (C58)", "OBJECT_ID": "2015-037A", "EPOCH": "2025-12-11T22:15:26.437248", "MEAN_MOTION": 1.8622897, "ECCENTRICITY": 0.00123447, "INCLINATION": 55.0397, "RA_OF_ASC_NODE": 308.4912, "ARG_OF_PERICENTER": 267.8245, "MEAN_ANOMALY": 92.025, "EPHEMERIS_TYPE": 0, "CLASSIFICATION_TYPE": "U", "NORAD_CAT_ID": 40748, "ELEMENT_SET_NO": 999, "REV_AT_EPOCH": 7063, "BSTAR": 0, "MEAN_MOTION_DOT": -8.9e-07, "MEAN_MOTION_DDOT": 0}, "tle": {"line1": "1 40748U 15037A   25345.92738932 -.00000089  00000+0  00000+0 0  9997", "line2": "2 40748  55.0397 308.4912 0012344 267.8245  92.0250  1.86228970 70636"}}, "geometry": {"type": "Point", "coordinates": [-12.895187785218734, 41.90353486904995]}}, {"type": "Feature", "properties": {"norad_id": 40749, "name": "BEIDOU-3S M1S (C57)", "group": "gnss", "lat": -53.996985204346245, "lon": -157.5291815891011, "alt_km": 21532.804668572626, "timestamp": "2025-12-18T10:51:26.046953+00:00", "meta": {"OBJECT_NAME": "BEIDOU-3S M1S (C57)", "OBJECT_ID": "2015-037B", "EPOCH": "2025-12-11T14:53:54.000096", "MEAN_MOTION": 1.86253918, "ECCENTRICITY": 0.00034406, "INCLINATION": 55.0364, "RA_OF_ASC_NODE": 308.4915, "ARG_OF_PERICENTER": 358.1692, "MEAN_ANOMALY": 1.8205, "EPHEMERIS_TYPE": 0, "CLASSIFICATION_TYPE": "U", "NORAD_CAT_ID": 40749, "ELEMENT_SET_NO": 999, "REV_AT_EPOCH": 7063, "BSTAR": 0, "MEAN_MOTION_DOT": -8.8e-07, "MEAN_MOTION_DDOT": 0}, "tle": {"line1": "1 40749U 15037B   25345.62076389 -.00000088  00000+0  00000+0 0  9995", "line2": "2 40749  55.0364 308.4915 0003440 358.1692   1.8205  1.86253918 70639"}}, "geometry": {"type": "Point", "coordinates": [-157.5291815891011, -53.996985204346245]}}, {"type": "Feature", "properties": {"norad_id": 40889, "name": "GSAT0205 (GALILEO 9)", "group": "gnss", "lat": -50.97218019237668, "lon": 166.88274995464056, "alt_km": 23234.407665858052, "timestamp": "2025-12-18T10:51:26.046965+00:00", "meta": {"OBJECT_NAME": "GSAT0205 (GALILEO 9)", "OBJECT_ID": "2015-045A", "EPOCH": "2025-12-13T06:56:57.536448", "MEAN_MOTION": 1.70473165, "ECCENTRICITY": 0.00060191, "INCLINATION": 55.0031, "RA_OF_ASC_NODE": 226.743, "ARG_OF_PERICENTER": 39.8542, "MEAN_ANOMALY": 320.2702, "EPHEMERIS_TYPE": 0, "CLASSIFICATION_TYPE": "U", "NORAD_CAT_ID": 40889, "ELEMENT_SET_NO": 999, "REV_AT_EPOCH": 6384, "BSTAR": 0, "MEAN_MOTION_DOT": 2.2e-07, "MEAN_MOTION_DDOT": 0}, "tle": {"line1": "1 40889U 15045A   25347.28955482  .00000022  00000+0  00000+0 0  9990", "line2": "2 40889  55.0031 226.7430 0006019  39.8542 320.2702  1.70473165 63847"}}, "geometry": {"type": "Point", "coordinates": [166.88274995464056, -50.97218019237668]}}, {"type": "Feature", "properties": {"norad_id": 40890, "name": "GSAT0206 (GALILEO 10)", "group": "gnss", "lat": 21.6664802853189, "lon": 30.45901600171567, "alt_km": 23224.51706537656, "timestamp": "2025-12-18T10:51:26.046976+00:00", "meta": {"OBJECT_NAME": "GSAT0206 (GALILEO 10)", "OBJECT_ID": "2015-045B", "EPOCH": "2025-12-14T16:24:04.185792", "MEAN_MOTION": 1.70473242, "ECCENTRICITY": 0.00039786, "INCLINATION": 55.0018, "RA_OF_ASC_NODE": 226.6995, "ARG_OF_PERICENTER": 38.8814, "MEAN_ANOMALY": 321.2332, "EPHEMERIS_TYPE": 0, "CLASSIFICATION_TYPE": "U", "NORAD_CAT_ID": 40890, "ELEMENT_SET_NO": 999, "REV_AT_EPOCH": 6389, "BSTAR": 0, "MEAN_MOTION_DOT": 3.4e-07, "MEAN_MOTION_DDOT": 0}, "tle": {"line1": "1 40890U 15045B   25348.68338178  .00000034  00000+0  00000+0 0  9997", "line2": "2 40890  55.0018 226.6995 0003978  38.8814 321.2332  1.70473242 63892"}}, "geometry": {"type": "Point", "coordinates": [30.45901600171567, 21.6664802853189]}}]}